start=new Date('2022-10-23T00:00:00.000Z').valueOf();
sats=[{"TLE_LINE2":"2 52478  53.2190 197.7715 0001616  65.6201 294.4960 15.08849837 26150","BSTAR":"0.00015373000000","TIME_SYSTEM":"UTC","RA_OF_ASC_NODE":"197.7715","ECCENTRICITY":"0.00016160","CLASSIFICATION_TYPE":"U","COUNTRY_CODE":"US","GP_ID":"215903564","DECAY_DATE":null,"OBJECT_TYPE":"PAYLOAD","SITE":"AFETR","EPOCH":"2022-10-22T21:51:10.752768","RCS_SIZE":"LARGE","REV_AT_EPOCH":"2615","REF_FRAME":"TEME","PERIAPSIS":"538.597","OBJECT_NAME":"STARLINK-3825","MEAN_ANOMALY":"294.4960","MEAN_MOTION":"15.08849837","NORAD_CAT_ID":"52478","FILE":"3629776","APOAPSIS":"540.833","CENTER_NAME":"EARTH","MEAN_MOTION_DDOT":"0.0000000000000","MEAN_MOTION_DOT":"0.00002160","OBJECT_ID":"2022-049AD","MEAN_ELEMENT_THEORY":"SGP4","INCLINATION":"53.2190","ARG_OF_PERICENTER":"65.6201","LAUNCH_DATE":"2022-05-06","PERIOD":"95.437","EPHEMERIS_TYPE":"0","SEMIMAJOR_AXIS":"6917.850","ELEMENT_SET_NO":"999","TLE_LINE1":"1 52478U 22049AD  22295.91054112  .00002160  00000-0  15373-3 0  9997"},{"REF_FRAME":"TEME","OBJECT_NAME":"STARLINK-3878","PERIAPSIS":"538.682","MEAN_ANOMALY":"303.4963","MEAN_MOTION":"15.08832121","NORAD_CAT_ID":"52479","FILE":"3629797","CENTER_NAME":"EARTH","APOAPSIS":"540.857","TLE_LINE2":"2 52479  53.2154 187.9866 0001572  56.6179 303.4963 15.08832121 27360","BSTAR":"-0.00002693500000","RA_OF_ASC_NODE":"187.9866","TIME_SYSTEM":"UTC","ECCENTRICITY":"0.00015720","CLASSIFICATION_TYPE":"U","GP_ID":"215926331","COUNTRY_CODE":"US","OBJECT_TYPE":"PAYLOAD","DECAY_DATE":null,"SITE":"AFETR","EPOCH":"2022-10-22T20:38:18.937824","RCS_SIZE":"LARGE","REV_AT_EPOCH":"2736","INCLINATION":"53.2154","ARG_OF_PERICENTER":"56.6179","LAUNCH_DATE":"2022-05-06","PERIOD":"95.438","EPHEMERIS_TYPE":"0","SEMIMAJOR_AXIS":"6917.904","ELEMENT_SET_NO":"999","TLE_LINE1":"1 52479U 22049AE  22295.85994141 -.00000717  00000-0 -26935-4 0  9991","MEAN_MOTION_DDOT":"0.0000000000000","MEAN_MOTION_DOT":"-0.00000717","OBJECT_ID":"2022-049AE","MEAN_ELEMENT_THEORY":"SGP4"},{"CENTER_NAME":"EARTH","APOAPSIS":"540.936","REF_FRAME":"TEME","OBJECT_NAME":"STARLINK-3839","PERIAPSIS":"538.521","MEAN_ANOMALY":"302.7544","MEAN_MOTION":"15.08845534","NORAD_CAT_ID":"52480","FILE":"3629776","COUNTRY_CODE":"US","GP_ID":"215903443","SITE":"AFETR","DECAY_DATE":null,"OBJECT_TYPE":"PAYLOAD","EPOCH":"2022-10-22T21:45:52.773984","REV_AT_EPOCH":"2615","RCS_SIZE":"LARGE","TLE_LINE2":"2 52480  53.2190 197.7845 0001745  57.3616 302.7544 15.08845534 26159","BSTAR":"0.00010040000000","TIME_SYSTEM":"UTC","RA_OF_ASC_NODE":"197.7845","ECCENTRICITY":"0.00017450","CLASSIFICATION_TYPE":"U","PERIOD":"95.437","EPHEMERIS_TYPE":"0","SEMIMAJOR_AXIS":"6917.863","ELEMENT_SET_NO":"999","TLE_LINE1":"1 52480U 22049AF  22295.90686081  .00001310  00000-0  10040-3 0  9997","INCLINATION":"53.2190","ARG_OF_PERICENTER":"57.3616","LAUNCH_DATE":"2022-05-06","MEAN_MOTION_DOT":"0.00001310","OBJECT_ID":"2022-049AF","MEAN_ELEMENT_THEORY":"SGP4","MEAN_MOTION_DDOT":"0.0000000000000"},{"SEMIMAJOR_AXIS":"6917.859","TLE_LINE1":"1 52481U 22049AG  22295.71550541  .00000753  00000-0  65379-4 0  9994","ELEMENT_SET_NO":"999","PERIOD":"95.437","EPHEMERIS_TYPE":"0","INCLINATION":"53.2196","ARG_OF_PERICENTER":"67.5503","LAUNCH_DATE":"2022-05-06","MEAN_ELEMENT_THEORY":"SGP4","OBJECT_ID":"2022-049AG","MEAN_MOTION_DOT":"0.00000753","MEAN_MOTION_DDOT":"0.0000000000000","CENTER_NAME":"EARTH","APOAPSIS":"540.743","PERIAPSIS":"538.705","OBJECT_NAME":"STARLINK-3842","MEAN_ANOMALY":"292.5645","MEAN_MOTION":"15.08847088","NORAD_CAT_ID":"52481","FILE":"3629797","REF_FRAME":"TEME","EPOCH":"2022-10-22T17:10:19.667424","RCS_SIZE":"LARGE","REV_AT_EPOCH":"2720","COUNTRY_CODE":"US","GP_ID":"215927333","DECAY_DATE":null,"OBJECT_TYPE":"PAYLOAD","SITE":"AFETR","TIME_SYSTEM":"UTC","RA_OF_ASC_NODE":"198.6484","ECCENTRICITY":"0.00014730","CLASSIFICATION_TYPE":"U","TLE_LINE2":"2 52481  53.2196 198.6484 0001473  67.5503 292.5645 15.08847088 27202","BSTAR":"0.00006537900000"},{"TLE_LINE1":"1 52482U 22049AH  22295.85258045 -.00000320  00000-0 -20021-5 0  9992","ELEMENT_SET_NO":"999","SEMIMAJOR_AXIS":"6917.861","EPHEMERIS_TYPE":"0","PERIOD":"95.437","ARG_OF_PERICENTER":"59.0769","LAUNCH_DATE":"2022-05-06","INCLINATION":"53.2183","MEAN_ELEMENT_THEORY":"SGP4","OBJECT_ID":"2022-049AH","MEAN_MOTION_DOT":"-0.00000320","MEAN_MOTION_DDOT":"0.0000000000000","APOAPSIS":"540.894","CENTER_NAME":"EARTH","NORAD_CAT_ID":"52482","FILE":"3629797","PERIAPSIS":"538.558","OBJECT_NAME":"STARLINK-3813","MEAN_ANOMALY":"301.0389","MEAN_MOTION":"15.08846368","REF_FRAME":"TEME","RCS_SIZE":"LARGE","REV_AT_EPOCH":"2612","EPOCH":"2022-10-22T20:27:42.950880","OBJECT_TYPE":"PAYLOAD","DECAY_DATE":null,"SITE":"AFETR","GP_ID":"215928084","COUNTRY_CODE":"US","ECCENTRICITY":"0.00016880","CLASSIFICATION_TYPE":"U","RA_OF_ASC_NODE":"188.0185","TIME_SYSTEM":"UTC","TLE_LINE2":"2 52482  53.2183 188.0185 0001688  59.0769 301.0389 15.08846368 26129","BSTAR":"-0.00000200210000"},{"MEAN_MOTION_DDOT":"0.0000000000000","MEAN_MOTION_DOT":"-0.00000325","OBJECT_ID":"2022-049AJ","MEAN_ELEMENT_THEORY":"SGP4","ARG_OF_PERICENTER":"61.2850","LAUNCH_DATE":"2022-05-06","INCLINATION":"53.2166","EPHEMERIS_TYPE":"0","PERIOD":"95.438","ELEMENT_SET_NO":"999","TLE_LINE1":"1 52483U 22049AJ  22295.86362304 -.00000325  00000-0 -23206-5 0  9991","SEMIMAJOR_AXIS":"6917.884","TLE_LINE2":"2 52483  53.2166 187.9740 0001691  61.2850 298.8312 15.08838741 27368","BSTAR":"-0.00000232060000","ECCENTRICITY":"0.00016910","CLASSIFICATION_TYPE":"U","TIME_SYSTEM":"UTC","RA_OF_ASC_NODE":"187.9740","OBJECT_TYPE":"PAYLOAD","DECAY_DATE":null,"SITE":"AFETR","COUNTRY_CODE":"US","GP_ID":"215926832","REV_AT_EPOCH":"2736","RCS_SIZE":"LARGE","EPOCH":"2022-10-22T20:43:37.030656","REF_FRAME":"TEME","NORAD_CAT_ID":"52483","FILE":"3629797","OBJECT_NAME":"STARLINK-3875","PERIAPSIS":"538.579","MEAN_ANOMALY":"298.8312","MEAN_MOTION":"15.08838741","CENTER_NAME":"EARTH","APOAPSIS":"540.919"},{"MEAN_MOTION_DDOT":"0.0000000000000","MEAN_ELEMENT_THEORY":"SGP4","MEAN_MOTION_DOT":"0.00000171","OBJECT_ID":"2022-049AK","LAUNCH_DATE":"2022-05-06","ARG_OF_PERICENTER":"45.4215","INCLINATION":"53.2189","TLE_LINE1":"1 52484U 22049AK  22295.90318420  .00000171  00000-0  28864-4 0  9998","ELEMENT_SET_NO":"999","SEMIMAJOR_AXIS":"6917.887","EPHEMERIS_TYPE":"0","PERIOD":"95.438","CLASSIFICATION_TYPE":"U","ECCENTRICITY":"0.00017920","TIME_SYSTEM":"UTC","RA_OF_ASC_NODE":"197.8114","BSTAR":"0.00002886400000","TLE_LINE2":"2 52484  53.2189 197.8114 0001792  45.4215 314.6924 15.08837703 26159","REV_AT_EPOCH":"2615","RCS_SIZE":"LARGE","EPOCH":"2022-10-22T21:40:35.114880","SITE":"AFETR","DECAY_DATE":null,"OBJECT_TYPE":"PAYLOAD","COUNTRY_CODE":"US","GP_ID":"215903356","FILE":"3629768","NORAD_CAT_ID":"52484","MEAN_ANOMALY":"314.6924","MEAN_MOTION":"15.08837703","OBJECT_NAME":"STARLINK-3887","PERIAPSIS":"538.513","REF_FRAME":"TEME","APOAPSIS":"540.992","CENTER_NAME":"EARTH"},{"INCLINATION":"53.2167","LAUNCH_DATE":"2022-05-06","ARG_OF_PERICENTER":"65.1798","SEMIMAJOR_AXIS":"6917.884","ELEMENT_SET_NO":"999","TLE_LINE1":"1 52485U 22049AL  22295.85626164 -.00000201  00000-0  54529-5 0  9993","PERIOD":"95.438","EPHEMERIS_TYPE":"0","MEAN_MOTION_DDOT":"0.0000000000000","MEAN_ELEMENT_THEORY":"SGP4","MEAN_MOTION_DOT":"-0.00000201","OBJECT_ID":"2022-049AL","MEAN_ANOMALY":"294.9374","MEAN_MOTION":"15.08838703","OBJECT_NAME":"STARLINK-3913","PERIAPSIS":"538.554","FILE":"3629797","NORAD_CAT_ID":"52485","REF_FRAME":"TEME","CENTER_NAME":"EARTH","APOAPSIS":"540.945","TIME_SYSTEM":"UTC","RA_OF_ASC_NODE":"188.0075","CLASSIFICATION_TYPE":"U","ECCENTRICITY":"0.00017280","BSTAR":"0.00000545290000","TLE_LINE2":"2 52485  53.2167 188.0075 0001728  65.1798 294.9374 15.08838703 26125","EPOCH":"2022-10-22T20:33:01.005696","RCS_SIZE":"LARGE","REV_AT_EPOCH":"2612","GP_ID":"215927834","COUNTRY_CODE":"US","OBJECT_TYPE":"PAYLOAD","DECAY_DATE":null,"SITE":"AFETR"},{"MEAN_MOTION_DDOT":"0.0000000000000","MEAN_ELEMENT_THEORY":"SGP4","OBJECT_ID":"2022-049AM","MEAN_MOTION_DOT":"-0.00000194","INCLINATION":"53.2182","ARG_OF_PERICENTER":"54.1844","LAUNCH_DATE":"2022-05-06","SEMIMAJOR_AXIS":"6917.903","ELEMENT_SET_NO":"999","TLE_LINE1":"1 52486U 22049AM  22295.89582454 -.00000194  00000-0  59200-5 0  9993","PERIOD":"95.438","EPHEMERIS_TYPE":"0","RA_OF_ASC_NODE":"197.8322","TIME_SYSTEM":"UTC","ECCENTRICITY":"0.00016180","CLASSIFICATION_TYPE":"U","TLE_LINE2":"2 52486  53.2182 197.8322 0001618  54.1844 305.9299 15.08832758 26150","BSTAR":"0.00000592000000","EPOCH":"2022-10-22T21:29:59.240256","REV_AT_EPOCH":"2615","RCS_SIZE":"LARGE","GP_ID":"215903116","COUNTRY_CODE":"US","SITE":"AFETR","DECAY_DATE":null,"OBJECT_TYPE":"PAYLOAD","PERIAPSIS":"538.648","OBJECT_NAME":"STARLINK-3918","MEAN_ANOMALY":"305.9299","MEAN_MOTION":"15.08832758","NORAD_CAT_ID":"52486","FILE":"3629768","REF_FRAME":"TEME","APOAPSIS":"540.887","CENTER_NAME":"EARTH"},{"MEAN_MOTION_DDOT":"0.0000000000000","MEAN_ELEMENT_THEORY":"SGP4","MEAN_MOTION_DOT":"-0.00000858","OBJECT_ID":"2022-049AN","ARG_OF_PERICENTER":"56.7401","LAUNCH_DATE":"2022-05-06","INCLINATION":"53.2154","TLE_LINE1":"1 52487U 22049AN  22295.85722556 -.00000858  00000-0 -35785-4 0  9998","ELEMENT_SET_NO":"999","SEMIMAJOR_AXIS":"6917.885","EPHEMERIS_TYPE":"0","PERIOD":"95.438","ECCENTRICITY":"0.00016920","CLASSIFICATION_TYPE":"U","TIME_SYSTEM":"UTC","RA_OF_ASC_NODE":"188.0036","TLE_LINE2":"2 52487  53.2154 188.0036 0001692  56.7401 303.3754 15.08838484 27367","BSTAR":"-0.00003578500000","REV_AT_EPOCH":"2736","RCS_SIZE":"LARGE","EPOCH":"2022-10-22T20:34:24.288384","DECAY_DATE":null,"SITE":"AFETR","OBJECT_TYPE":"PAYLOAD","GP_ID":"215926332","COUNTRY_CODE":"US","NORAD_CAT_ID":"52487","FILE":"3629797","PERIAPSIS":"538.580","OBJECT_NAME":"STARLINK-3902","MEAN_ANOMALY":"303.3754","MEAN_MOTION":"15.08838484","REF_FRAME":"TEME","APOAPSIS":"540.921","CENTER_NAME":"EARTH"}];
